{
  "type": "FeatureCollection",
  "features": [
    {
      "type": "Feature",
      "properties": {
        "norad_id": 35890,
        "name": "COSMOS 2251 DEB",
        "group": "cosmos-2251-debris",
        "lat": 45.47610240169419,
        "lon": 30.866641491069444,
        "alt_km": 726.3181127311609,
        "timestamp": "2025-12-20T11:30:28.772860+00:00",
        "meta_object_name": "COSMOS 2251 DEB",
        "meta_object_id": "1993-036AUD",
        "meta_epoch": "2025-12-16T22:53:46.078656",
        "meta_mean_motion": 14.57543512,
        "meta_eccentricity": 0.00539437,
        "meta_inclination": 73.9365,
        "meta_ra_of_asc_node": 234.6414,
        "meta_arg_of_pericenter": 358.5125,
        "meta_mean_anomaly": 1.5869,
        "meta_ephemeris_type": 0,
        "meta_classification_type": "U",
        "meta_norad_cat_id": 35890,
        "meta_element_set_no": 999,
        "meta_rev_at_epoch": 65212,
        "meta_bstar": 0.0012168345,
        "meta_mean_motion_dot": 5.621e-05,
        "meta_mean_motion_ddot": 0,
        "tle_line1": "1 35890U 93036AUD 25350.95400554  .00005621  00000+0  12168-2 0  9996",
        "tle_line2": "2 35890  73.9365 234.6414 0053943 358.5125   1.5869 14.57543512652129"
      },
      "geometry": {
        "type": "Point",
        "coordinates": [
          30.866641491069444,
          45.47610240169419
        ]
      }
    },
    {
      "type": "Feature",
      "properties": {
        "norad_id": 35891,
        "name": "COSMOS 2251 DEB",
        "group": "cosmos-2251-debris",
        "lat": -12.844637286359967,
        "lon": 73.50800708321721,
        "alt_km": 490.56971255340795,
        "timestamp": "2025-12-20T11:30:28.772870+00:00",
        "meta_object_name": "COSMOS 2251 DEB",
        "meta_object_id": "1993-036AUE",
        "meta_epoch": "2025-12-19T23:02:38.567040",
        "meta_mean_motion": 15.33900235,
        "meta_eccentricity": 0.0042412,
        "meta_inclination": 73.9897,
        "meta_ra_of_asc_node": 78.3766,
        "meta_arg_of_pericenter": 207.7893,
        "meta_mean_anomaly": 152.1046,
        "meta_ephemeris_type": 0,
        "meta_classification_type": "U",
        "meta_norad_cat_id": 35891,
        "meta_element_set_no": 999,
        "meta_rev_at_epoch": 67331,
        "meta_bstar": 0.0008769,
        "meta_mean_motion_dot": 0.00029674,
        "meta_mean_motion_ddot": 0,
        "tle_line1": "1 35891U 93036AUE 25353.96016860  .00029674  00000+0  87690-3 0  9991",
        "tle_line2": "2 35891  73.9897  78.3766 0042412 207.7893 152.1046 15.33900235673317"
      },
      "geometry": {
        "type": "Point",
        "coordinates": [
          73.50800708321721,
          -12.844637286359967
        ]
      }
    },
    {
      "type": "Feature",
      "properties": {
        "norad_id": 35895,
        "name": "COSMOS 2251 DEB",
        "group": "cosmos-2251-debris",
        "lat": -44.09625261623171,
        "lon": 170.33225171428305,
        "alt_km": 1025.581289249918,
        "timestamp": "2025-12-20T11:30:28.772880+00:00",
        "meta_object_name": "COSMOS 2251 DEB",
        "meta_object_id": "1993-036AUJ",
        "meta_epoch": "2025-12-11T07:10:31.732032",
        "meta_mean_motion": 14.01513994,
        "meta_eccentricity": 0.01987879,
        "meta_inclination": 74.0502,
        "meta_ra_of_asc_node": 350.1634,
        "meta_arg_of_pericenter": 88.7843,
        "meta_mean_anomaly": 273.6056,
        "meta_ephemeris_type": 0,
        "meta_classification_type": "U",
        "meta_norad_cat_id": 35895,
        "meta_element_set_no": 999,
        "meta_rev_at_epoch": 58992,
        "meta_bstar": 0.0020881347,
        "meta_mean_motion_dot": 3.73e-05,
        "meta_mean_motion_ddot": 0,
        "tle_line1": "1 35895U 93036AUJ 25345.29897838  .00003730  00000+0  20881-2 0  9997",
        "tle_line2": "2 35895  74.0502 350.1634 0198787  88.7843 273.6056 14.01513994589929"
      },
      "geometry": {
        "type": "Point",
        "coordinates": [
          170.33225171428305,
          -44.09625261623171
        ]
      }
    },
    {
      "type": "Feature",
      "properties": {
        "norad_id": 35898,
        "name": "COSMOS 2251 DEB",
        "group": "cosmos-2251-debris",
        "lat": 13.395174319046703,
        "lon": 97.88926325200045,
        "alt_km": 595.4018051283119,
        "timestamp": "2025-12-20T11:30:28.772890+00:00",
        "meta_object_name": "COSMOS 2251 DEB",
        "meta_object_id": "1993-036AUM",
        "meta_epoch": "2025-12-17T02:32:30.687072",
        "meta_mean_motion": 14.94779467,
        "meta_eccentricity": 0.00792454,
        "meta_inclination": 73.9918,
        "meta_ra_of_asc_node": 288.6268,
        "meta_arg_of_pericenter": 70.8936,
        "meta_mean_anomaly": 307.548,
        "meta_ephemeris_type": 0,
        "meta_classification_type": "U",
        "meta_norad_cat_id": 35898,
        "meta_element_set_no": 999,
        "meta_rev_at_epoch": 66875,
        "meta_bstar": 0.00065982938,
        "meta_mean_motion_dot": 7.606e-05,
        "meta_mean_motion_ddot": 0,
        "tle_line1": "1 35898U 93036AUM 25351.10591073  .00007606  00000+0  65983-3 0  9998",
        "tle_line2": "2 35898  73.9918 288.6268 0079245  70.8936 307.5480 14.94779467668759"
      },
      "geometry": {
        "type": "Point",
        "coordinates": [
          97.88926325200045,
          13.395174319046703
        ]
      }
    },
    {
      "type": "Feature",
      "properties": {
        "norad_id": 35901,
        "name": "COSMOS 2251 DEB",
        "group": "cosmos-2251-debris",
        "lat": 18.83435219550658,
        "lon": -178.67964987185414,
        "alt_km": 548.3862083013637,
        "timestamp": "2025-12-20T11:30:28.772900+00:00",
        "meta_object_name": "COSMOS 2251 DEB",
        "meta_object_id": "1993-036AUQ",
        "meta_epoch": "2025-12-19T17:49:19.152192",
        "meta_mean_motion": 15.07669326,
        "meta_eccentricity": 0.00076003,
        "meta_inclination": 74.0118,
        "meta_ra_of_asc_node": 8.45,
        "meta_arg_of_pericenter": 341.4047,
        "meta_mean_anomaly": 140.8149,
        "meta_ephemeris_type": 0,
        "meta_classification_type": "U",
        "meta_norad_cat_id": 35901,
        "meta_element_set_no": 999,
        "meta_rev_at_epoch": 86232,
        "meta_bstar": 0.0021961299,
        "meta_mean_motion_dot": 0.00033635,
        "meta_mean_motion_ddot": 0,
        "tle_line1": "1 35901U 93036AUQ 25353.74258278  .00033635  00000+0  21961-2 0  9990",
        "tle_line2": "2 35901  74.0118   8.4500 0007600 341.4047 140.8149 15.07669326862327"
      },
      "geometry": {
        "type": "Point",
        "coordinates": [
          -178.67964987185414,
          18.83435219550658
        ]
      }
    },
    {
      "type": "Feature",
      "properties": {
        "norad_id": 35902,
        "name": "COSMOS 2251 DEB",
        "group": "cosmos-2251-debris",
        "lat": 6.486218171568534,
        "lon": -137.59463949766675,
        "alt_km": 741.8932285408009,
        "timestamp": "2025-12-20T11:30:28.772910+00:00",
        "meta_object_name": "COSMOS 2251 DEB",
        "meta_object_id": "1993-036AUR",
        "meta_epoch": "2025-12-19T15:17:09.843072",
        "meta_mean_motion": 14.26937143,
        "meta_eccentricity": 0.0102282,
        "meta_inclination": 73.9823,
        "meta_ra_of_asc_node": 222.0626,
        "meta_arg_of_pericenter": 335.5486,
        "meta_mean_anomaly": 24.0827,
        "meta_ephemeris_type": 0,
        "meta_classification_type": "U",
        "meta_norad_cat_id": 35902,
        "meta_element_set_no": 999,
        "meta_rev_at_epoch": 61228,
        "meta_bstar": 0.00057286,
        "meta_mean_motion_dot": 1.445e-05,
        "meta_mean_motion_ddot": 0,
        "tle_line1": "1 35902U 93036AUR 25353.63691948  .00001445  00000+0  57286-3 0  9998",
        "tle_line2": "2 35902  73.9823 222.0626 0102282 335.5486  24.0827 14.26937143612284"
      },
      "geometry": {
        "type": "Point",
        "coordinates": [
          -137.59463949766675,
          6.486218171568534
        ]
      }
    },
    {
      "type": "Feature",
      "properties": {
        "norad_id": 35905,
        "name": "COSMOS 2251 DEB",
        "group": "cosmos-2251-debris",
        "lat": 12.98435196036479,
        "lon": 11.31299206481587,
        "alt_km": 588.3446379016041,
        "timestamp": "2025-12-20T11:30:28.772920+00:00",
        "meta_object_name": "COSMOS 2251 DEB",
        "meta_object_id": "1993-036AUU",
        "meta_epoch": "2025-12-19T20:20:40.701984",
        "meta_mean_motion": 14.99109626,
        "meta_eccentricity": 0.00907234,
        "meta_inclination": 74.0303,
        "meta_ra_of_asc_node": 196.3814,
        "meta_arg_of_pericenter": 274.7905,
        "meta_mean_anomaly": 84.2926,
        "meta_ephemeris_type": 0,
        "meta_classification_type": "U",
        "meta_norad_cat_id": 35905,
        "meta_element_set_no": 999,
        "meta_rev_at_epoch": 88689,
        "meta_bstar": 0.00038534717,
        "meta_mean_motion_dot": 5.062e-05,
        "meta_mean_motion_ddot": 0,
        "tle_line1": "1 35905U 93036AUU 25353.84769331  .00005062  00000+0  38535-3 0  9991",
        "tle_line2": "2 35905  74.0303 196.3814 0090723 274.7905  84.2926 14.99109626886895"
      },
      "geometry": {
        "type": "Point",
        "coordinates": [
          11.31299206481587,
          12.98435196036479
        ]
      }
    }
  ]
}